[{"OBJECT_NAME":"ONEWEB-0530","OBJECT_ID":"2023-029A","EPOCH":"2026-03-09T20:22:37.983072","MEAN_MOTION":13.20770637,"ECCENTRICITY":0.00013361,"INCLINATION":87.9161,"RA_OF_ASC_NODE":294.3137,"ARG_OF_PERICENTER":67.1134,"MEAN_ANOMALY":293.014,"EPHEMERIS_TYPE":0,"CLASSIFICATION_TYPE":"U","NORAD_CAT_ID":55796,"ELEMENT_SET_NO":999,"REV_AT_EPOCH":14803,"BSTAR":-0.00046135555,"MEAN_MOTION_DOT":-1.75e-6,"MEAN_MOTION_DDOT":0},{"OBJECT_NAME":"SCOUT G-1 DEB","OBJECT_ID":"1988-033F","EPOCH":"2026-03-09T20:17:11.892192","MEAN_MOTION":13.64530158,"ECCENTRICITY":0.0225451,"INCLINATION":90.3019,"RA_OF_ASC_NODE":10.7448,"ARG_OF_PERICENTER":90.0791,"MEAN_ANOMALY":327.2282,"EPHEMERIS_TYPE":0,"CLASSIFICATION_TYPE":"U","NORAD_CAT_ID":19140,"ELEMENT_SET_NO":999,"REV_AT_EPOCH":85855,"BSTAR":0.003179194,"MEAN_MOTION_DOT":3.043e-5,"MEAN_MOTION_DDOT":0}]
